GAOFEN-1                
1 39150U 13018A   26174.97524825  .00000632  00000+0  97771-4 0  9998
2 39150  97.9091 246.9056 0015788 242.4869 117.4737 14.76543338709247
FENGYUN 4A              
1 41882U 16077A   26174.71183522 -.00000352  00000+0  00000+0 0  9992
2 41882   2.3403  80.2217 0008368 152.9998  58.5685  1.00265670 34994
FORMOSAT-5              
1 42920U 17049A   26174.88026585  .00000090  00000+0  33936-4 0  9996
2 42920  98.2252 250.0414 0012533  65.8111 294.4392 14.50900793467647
FENGYUN 3D              
1 43010U 17072A   26174.91293677  .00000146  00000+0  91024-4 0  9999
2 43010  99.0130 149.4564 0002382  51.7347 308.4043 14.19740749445941
GAOFEN-1 02             
1 43259U 18031A   26174.94005819  .00000674  00000+0  10438-3 0  9997
2 43259  98.0523 237.4485 0003187  14.8796 345.2507 14.76416257443694
GAOFEN-1 03             
1 43260U 18031B   26173.90154958  .00000467  00000+0  74551-4 0  9990
2 43260  98.0516 236.2708 0003590  67.4447 292.7142 14.76475441443532
FENGYUN 3E              
1 49008U 21062A   26174.96652090 -.00000067  00000+0 -10881-4 0  9995
2 49008  98.7498 178.2987 0002798  74.7766 285.3720 14.19904659257541
FENGYUN 3G              
1 56232U 23055A   26174.92783772  .00020977  00000+0  33715-3 0  9994
2 56232  49.9932 311.2825 0007157 324.6011  35.4480 15.52894432181057
FENGYUN 3F              
1 57490U 23111A   26174.95027950  .00000021  00000+0  30495-4 0  9997
2 57490  98.6835 244.8331 0001562  88.3310 271.8046 14.19940050149823
FENGYUN 3H              
1 65815U 25219A   26174.59441309  .00000027  00000+0  33053-4 0  9995
2 65815  98.6768 115.2390 0001539  72.1402 287.9943 14.19921355 38290
