{
 "generated_at": "2026-06-24T08:22:35Z",
 "sources": [
  {
   "name": "CelesTrak",
   "url": "https://celestrak.org/NORAD/elements/",
   "license": "frei verfügbar; Attribution. Ursprünglich USSPACECOM/Space-Track."
  },
  {
   "name": "GCAT (J. McDowell, planet4589.org)",
   "url": "https://planet4589.org/space/gcat/",
   "license": "CC-BY 4.0"
  }
 ],
 "satellites": [
  {
   "norad": 43010,
   "name": "FENGYUN 3D",
   "intl": "2017-072A",
   "group": "weather",
   "gcat": {
    "class": "C",
    "category": "MET",
    "owner": "NSMC",
    "state": "CN"
   },
   "omm": {
    "OBJECT_NAME": "FENGYUN 3D",
    "OBJECT_ID": "2017-072A",
    "EPOCH": "2026-06-23T21:54:37.736928",
    "MEAN_MOTION": 14.19740749,
    "ECCENTRICITY": 0.00023825,
    "INCLINATION": 99.013,
    "RA_OF_ASC_NODE": 149.4564,
    "ARG_OF_PERICENTER": 51.7347,
    "MEAN_ANOMALY": 308.4043,
    "EPHEMERIS_TYPE": 0,
    "CLASSIFICATION_TYPE": "U",
    "NORAD_CAT_ID": 43010,
    "ELEMENT_SET_NO": 999,
    "REV_AT_EPOCH": 44594,
    "BSTAR": 0.000091023663,
    "MEAN_MOTION_DOT": 0.00000146,
    "MEAN_MOTION_DDOT": 0
   }
  },
  {
   "norad": 49008,
   "name": "FENGYUN 3E",
   "intl": "2021-062A",
   "group": "weather",
   "gcat": {
    "class": "C",
    "category": "MET",
    "owner": "NSMC",
    "state": "CN"
   },
   "omm": {
    "OBJECT_NAME": "FENGYUN 3E",
    "OBJECT_ID": "2021-062A",
    "EPOCH": "2026-06-23T23:11:47.405760",
    "MEAN_MOTION": 14.19904659,
    "ECCENTRICITY": 0.00027986,
    "INCLINATION": 98.7498,
    "RA_OF_ASC_NODE": 178.2987,
    "ARG_OF_PERICENTER": 74.7766,
    "MEAN_ANOMALY": 285.372,
    "EPHEMERIS_TYPE": 0,
    "CLASSIFICATION_TYPE": "U",
    "NORAD_CAT_ID": 49008,
    "ELEMENT_SET_NO": 999,
    "REV_AT_EPOCH": 25754,
    "BSTAR": -0.000010880884,
    "MEAN_MOTION_DOT": -6.7e-7,
    "MEAN_MOTION_DDOT": 0
   }
  },
  {
   "norad": 57490,
   "name": "FENGYUN 3F",
   "intl": "2023-111A",
   "group": "weather",
   "gcat": {
    "class": "C",
    "category": "MET",
    "owner": "NSMC",
    "state": "CN"
   },
   "omm": {
    "OBJECT_NAME": "FENGYUN 3F",
    "OBJECT_ID": "2023-111A",
    "EPOCH": "2026-06-23T22:48:24.148800",
    "MEAN_MOTION": 14.1994005,
    "ECCENTRICITY": 0.00015624,
    "INCLINATION": 98.6835,
    "RA_OF_ASC_NODE": 244.8331,
    "ARG_OF_PERICENTER": 88.331,
    "MEAN_ANOMALY": 271.8046,
    "EPHEMERIS_TYPE": 0,
    "CLASSIFICATION_TYPE": "U",
    "NORAD_CAT_ID": 57490,
    "ELEMENT_SET_NO": 999,
    "REV_AT_EPOCH": 14982,
    "BSTAR": 0.000030495068,
    "MEAN_MOTION_DOT": 2.1e-7,
    "MEAN_MOTION_DDOT": 0
   }
  },
  {
   "norad": 56232,
   "name": "FENGYUN 3G",
   "intl": "2023-055A",
   "group": "weather",
   "gcat": {
    "class": "C",
    "category": "MET",
    "owner": "NSMC",
    "state": "CN"
   },
   "omm": {
    "OBJECT_NAME": "FENGYUN 3G",
    "OBJECT_ID": "2023-055A",
    "EPOCH": "2026-06-23T22:16:05.179008",
    "MEAN_MOTION": 15.52894432,
    "ECCENTRICITY": 0.00071573,
    "INCLINATION": 49.9932,
    "RA_OF_ASC_NODE": 311.2825,
    "ARG_OF_PERICENTER": 324.6011,
    "MEAN_ANOMALY": 35.448,
    "EPHEMERIS_TYPE": 0,
    "CLASSIFICATION_TYPE": "U",
    "NORAD_CAT_ID": 56232,
    "ELEMENT_SET_NO": 999,
    "REV_AT_EPOCH": 18105,
    "BSTAR": 0.0003371472,
    "MEAN_MOTION_DOT": 0.00020977,
    "MEAN_MOTION_DDOT": 0
   }
  },
  {
   "norad": 65815,
   "name": "FENGYUN 3H",
   "intl": "2025-219A",
   "group": "weather",
   "gcat": {
    "class": "C",
    "category": "MET",
    "owner": "NSMC",
    "state": "CN"
   },
   "omm": {
    "OBJECT_NAME": "FENGYUN 3H",
    "OBJECT_ID": "2025-219A",
    "EPOCH": "2026-06-23T14:15:57.290976",
    "MEAN_MOTION": 14.19921355,
    "ECCENTRICITY": 0.00015395,
    "INCLINATION": 98.6768,
    "RA_OF_ASC_NODE": 115.239,
    "ARG_OF_PERICENTER": 72.1402,
    "MEAN_ANOMALY": 287.9943,
    "EPHEMERIS_TYPE": 0,
    "CLASSIFICATION_TYPE": "U",
    "NORAD_CAT_ID": 65815,
    "ELEMENT_SET_NO": 999,
    "REV_AT_EPOCH": 3829,
    "BSTAR": 0.00003305263,
    "MEAN_MOTION_DOT": 2.7e-7,
    "MEAN_MOTION_DDOT": 0
   }
  },
  {
   "norad": 41882,
   "name": "FENGYUN 4A",
   "intl": "2016-077A",
   "group": "weather",
   "gcat": {
    "class": "C",
    "category": "MET",
    "owner": "NSMC",
    "state": "CN"
   },
   "omm": {
    "OBJECT_NAME": "FENGYUN 4A",
    "OBJECT_ID": "2016-077A",
    "EPOCH": "2026-06-23T17:05:02.563008",
    "MEAN_MOTION": 1.0026567,
    "ECCENTRICITY": 0.00083687,
    "INCLINATION": 2.3403,
    "RA_OF_ASC_NODE": 80.2217,
    "ARG_OF_PERICENTER": 152.9998,
    "MEAN_ANOMALY": 58.5685,
    "EPHEMERIS_TYPE": 0,
    "CLASSIFICATION_TYPE": "U",
    "NORAD_CAT_ID": 41882,
    "ELEMENT_SET_NO": 999,
    "REV_AT_EPOCH": 3499,
    "BSTAR": 0,
    "MEAN_MOTION_DOT": -0.00000352,
    "MEAN_MOTION_DDOT": 0
   }
  },
  {
   "norad": 42920,
   "name": "FORMOSAT-5",
   "intl": "2017-049A",
   "group": "resource",
   "gcat": {
    "class": "C",
    "category": "IMG/SCI",
    "owner": "NSPO",
    "state": "TW"
   },
   "omm": {
    "OBJECT_NAME": "FORMOSAT-5",
    "OBJECT_ID": "2017-049A",
    "EPOCH": "2026-06-23T21:07:34.969440",
    "MEAN_MOTION": 14.50900793,
    "ECCENTRICITY": 0.00125331,
    "INCLINATION": 98.2252,
    "RA_OF_ASC_NODE": 250.0414,
    "ARG_OF_PERICENTER": 65.8111,
    "MEAN_ANOMALY": 294.4392,
    "EPHEMERIS_TYPE": 0,
    "CLASSIFICATION_TYPE": "U",
    "NORAD_CAT_ID": 42920,
    "ELEMENT_SET_NO": 999,
    "REV_AT_EPOCH": 46764,
    "BSTAR": 0.000033935838,
    "MEAN_MOTION_DOT": 9e-7,
    "MEAN_MOTION_DDOT": 0
   }
  },
  {
   "norad": 39150,
   "name": "GAOFEN-1",
   "intl": "2013-018A",
   "group": "resource",
   "gcat": {
    "class": "C",
    "category": "IMG",
    "owner": "CNSAS",
    "state": "CN"
   },
   "omm": {
    "OBJECT_NAME": "GAOFEN-1",
    "OBJECT_ID": "2013-018A",
    "EPOCH": "2026-06-23T23:24:21.448800",
    "MEAN_MOTION": 14.76543338,
    "ECCENTRICITY": 0.0015788,
    "INCLINATION": 97.9091,
    "RA_OF_ASC_NODE": 246.9056,
    "ARG_OF_PERICENTER": 242.4869,
    "MEAN_ANOMALY": 117.4737,
    "EPHEMERIS_TYPE": 0,
    "CLASSIFICATION_TYPE": "U",
    "NORAD_CAT_ID": 39150,
    "ELEMENT_SET_NO": 999,
    "REV_AT_EPOCH": 70924,
    "BSTAR": 0.000097771427,
    "MEAN_MOTION_DOT": 0.00000632,
    "MEAN_MOTION_DDOT": 0
   }
  },
  {
   "norad": 43259,
   "name": "GAOFEN-1 02",
   "intl": "2018-031A",
   "group": "resource",
   "gcat": {
    "class": "C",
    "category": "IMG",
    "owner": "CNSAS",
    "state": "CN"
   },
   "omm": {
    "OBJECT_NAME": "GAOFEN-1 02",
    "OBJECT_ID": "2018-031A",
    "EPOCH": "2026-06-23T22:33:41.027616",
    "MEAN_MOTION": 14.76416257,
    "ECCENTRICITY": 0.00031877,
    "INCLINATION": 98.0523,
    "RA_OF_ASC_NODE": 237.4485,
    "ARG_OF_PERICENTER": 14.8796,
    "MEAN_ANOMALY": 345.2507,
    "EPHEMERIS_TYPE": 0,
    "CLASSIFICATION_TYPE": "U",
    "NORAD_CAT_ID": 43259,
    "ELEMENT_SET_NO": 999,
    "REV_AT_EPOCH": 44369,
    "BSTAR": 0.00010438377,
    "MEAN_MOTION_DOT": 0.00000674,
    "MEAN_MOTION_DDOT": 0
   }
  },
  {
   "norad": 43260,
   "name": "GAOFEN-1 03",
   "intl": "2018-031B",
   "group": "resource",
   "gcat": {
    "class": "C",
    "category": "IMG",
    "owner": "CNSAS",
    "state": "CN"
   },
   "omm": {
    "OBJECT_NAME": "GAOFEN-1 03",
    "OBJECT_ID": "2018-031B",
    "EPOCH": "2026-06-22T21:38:13.883712",
    "MEAN_MOTION": 14.76475441,
    "ECCENTRICITY": 0.00035906,
    "INCLINATION": 98.0516,
    "RA_OF_ASC_NODE": 236.2708,
    "ARG_OF_PERICENTER": 67.4447,
    "MEAN_ANOMALY": 292.7142,
    "EPHEMERIS_TYPE": 0,
    "CLASSIFICATION_TYPE": "U",
    "NORAD_CAT_ID": 43260,
    "ELEMENT_SET_NO": 999,
    "REV_AT_EPOCH": 44353,
    "BSTAR": 0.000074551065,
    "MEAN_MOTION_DOT": 0.00000467,
    "MEAN_MOTION_DDOT": 0
   }
  }
 ]
}
